NORAD_CAT_ID,OBJECT_NAME,OBJECT_TYPE,EPOCH,MEAN_MOTION,ECCENTRICITY,INCLINATION,RA_OF_ASC_NODE,ARG_OF_PERICENTER,MEAN_ANOMALY,BSTAR,MEAN_MOTION_DOT,MEAN_MOTION_DDOT,TLE_LINE0,TLE_LINE1,TLE_LINE2,SEMIMAJOR_AXIS,PERIOD,APOGEE,PERIGEE,DECAYED
49771.0,STARLINK-3201,PAYLOAD,2022-12-17 03:00:27,15.08832229,0.0002346,53.2171,29.8986,32.7203,327.3934,-1.1905e-05,-4.78e-06,0.0,0 STARLINK-3201,1 49771U 21115AZ  22351.12531995 -.00000478  00000-0 -11905-4 0  9997,2 49771  53.2171  29.8986 0002346  32.7203 327.3934 15.08832229 58861,6917.904,95.438,541.3919999999998,538.146,0.0
49771.0,STARLINK-3201,PAYLOAD,2022-12-17 12:32:46,15.08837718,0.0002456,53.2173,28.1144,28.0384,332.074,-3.1783000000000004e-05,-7.94e-06,0.0,0 STARLINK-3201,1 49771U 21115AZ  22351.52275822 -.00000794  00000-0 -31783-4 0  9992,2 49771  53.2173  28.1144 0002456  28.0384 332.0740 15.08837718 57811,6917.887,95.438,541.451,538.053,0.0
49771.0,STARLINK-3201,PAYLOAD,2022-12-17 14:08:09,15.08840197,0.000247,53.2175,27.8173,28.5197,331.593,-9.2438e-06,-4.36e-06,0.0,0 STARLINK-3201,1 49771U 21115AZ  22351.58899593 -.00000436  00000-0 -92438-5 0  9993,2 49771  53.2175  27.8173 0002470  28.5197 331.5930 15.08840197 58938,6917.88,95.438,541.4540000000002,538.036,0.0
49771.0,STARLINK-3201,PAYLOAD,2022-12-18 12:23:33,15.08843522,0.0002489,53.2184,23.6547,26.2844,333.8274,-3.605e-05,-8.62e-06,0.0,0 STARLINK-3201,1 49771U 21115AZ  22352.51635526 -.00000862  00000-0 -36050-4 0  9991,2 49771  53.2184  23.6547 0002489  26.2844 333.8274 15.08843522 57964,6917.87,95.437,541.456,538.013,0.0
49771.0,STARLINK-3201,PAYLOAD,2022-12-18 18:45:06,15.08832214,0.0002529,53.2176,22.465,28.1738,331.939,-2.5003e-05,-6.86e-06,0.0,0 STARLINK-3201,1 49771U 21115AZ  22352.78132336 -.00000686  00000-0 -25003-4 0  9991,2 49771  53.2176  22.4650 0002529  28.1738 331.9390 15.08832214 58005,6917.904,95.438,541.519,538.02,0.0
49771.0,STARLINK-3201,PAYLOAD,2022-12-19 02:42:02,15.08830454,0.0002581,53.2183,20.9775,28.4477,331.6656,5.2319e-05,5.44e-06,0.0,0 STARLINK-3201,1 49771U 21115AZ  22353.11252445  .00000544  00000-0  52319-4 0  9994,2 49771  53.2183  20.9775 0002581  28.4477 331.6656 15.08830454 59169,6917.91,95.438,541.56,537.989,0.0
49771.0,STARLINK-3201,PAYLOAD,2022-12-19 09:03:35,15.08828069,0.0002491,53.2184,19.7884,26.3192,333.7927,1.9152e-05,1.6e-07,0.0,0 STARLINK-3201,1 49771U 21115AZ  22353.37748918  .00000016  00000-0  19152-4 0  9999,2 49771  53.2184  19.7884 0002491  26.3192 333.7927 15.08828069 58092,6917.917,95.438,541.505,538.059,0.0
49771.0,STARLINK-3201,PAYLOAD,2022-12-19 18:35:53,15.08841356,0.0002479,53.2185,18.0042,27.5671,332.5452,8.9614e-05,1.138e-05,0.0,0 STARLINK-3201,1 49771U 21115AZ  22353.77492001  .00001138  00000-0  89614-4 0  9998,2 49771  53.2185  18.0042 0002479  27.5671 332.5452 15.08841356 58153,6917.876,95.437,541.456,538.026,0.0
49771.0,STARLINK-3201,PAYLOAD,2022-12-20 10:29:43,15.08848483,0.0002508,53.2178,15.0306,27.7878,332.3248,0.00013101,1.798e-05,0.0,0 STARLINK-3201,1 49771U 21115AZ  22354.43731279  .00001798  00000-0  13101-3 0  9994,2 49771  53.2178  15.0306 0002508  27.7878 332.3248 15.08848483 59362,6917.854,95.437,541.4540000000002,537.984,0.0
49771.0,STARLINK-3201,PAYLOAD,2022-12-20 18:26:40,15.08840882,0.0002583,53.2175,13.5435,29.1559,330.9577,4.5935e-05,4.43e-06,0.0,0 STARLINK-3201,1 49771U 21115AZ  22354.76851909  .00000443  00000-0  45935-4 0  9990,2 49771  53.2175  13.5435 0002583  29.1559 330.9577 15.08840882 59410,6917.878000000002,95.437,541.53,537.956,0.0
49771.0,STARLINK-3201,PAYLOAD,2022-12-21 08:45:09,15.08818392,0.0002485,53.2178,10.8664,29.8158,330.2975,-5.272100000000001e-05,-1.127e-05,0.0,0 STARLINK-3201,1 49771U 21115AZ  22355.36469882 -.00001127  00000-0 -52721-4 0  9995,2 49771  53.2178  10.8664 0002485  29.8158 330.2975 15.08818392 59506,6917.946,95.439,541.531,538.092,0.0
49771.0,STARLINK-3201,PAYLOAD,2022-12-22 00:39:00,15.08835493,0.0002625,53.2179,7.8935,25.9571,334.1552,-5.2167e-05,-1.119e-05,0.0,0 STARLINK-3201,1 49771U 21115AZ  22356.02709270 -.00001119  00000-0 -52167-4 0  9992,2 49771  53.2179   7.8935 0002625  25.9571 334.1552 15.08835493 59602,6917.894,95.438,541.575,537.943,0.0
49771.0,STARLINK-3201,PAYLOAD,2022-12-22 08:35:55,15.08847642,0.0002546,53.2183,6.4075,31.2426,328.8717,-5.1019e-05,-1.101e-05,0.0,0 STARLINK-3201,1 49771U 21115AZ  22356.35828468 -.00001101  00000-0 -51019-4 0  9995,2 49771  53.2183   6.4075 0002546  31.2426 328.8717 15.08847642 59655,6917.857,95.437,541.4830000000002,537.961,0.0
49771.0,STARLINK-3201,PAYLOAD,2022-12-22 18:08:14,15.08842426,0.0002639,53.2177,4.6229,30.1878,329.9266,3.0638e-05,1.99e-06,0.0,0 STARLINK-3201,1 49771U 21115AZ  22356.75572510  .00000199  00000-0  30638-4 0  9991,2 49771  53.2177   4.6229 0002639  30.1878 329.9266 15.08842426 58601,6917.873000000001,95.437,541.564,537.9119999999998,0.0
49771.0,STARLINK-3201,PAYLOAD,2022-12-23 10:02:06,15.08826889,0.0002612,53.2186,1.6499,28.3349,331.7785,0.00014522,2.023e-05,0.0,0 STARLINK-3201,1 49771U 21115AZ  22357.41813419  .00002023  00000-0  14522-3 0  9992,2 49771  53.2186   1.6499 0002612  28.3349 331.7785 15.08826889 59816,6917.92,95.438,541.592,537.979,0.0
49771.0,STARLINK-3201,PAYLOAD,2022-12-23 17:59:02,15.08835958,0.0002709,53.2189,0.1631,28.9105,331.2037,3.8271e-05,3.21e-06,0.0,0 STARLINK-3201,1 49771U 21115AZ  22357.74933323  .00000321  00000-0  38271-4 0  9992,2 49771  53.2189   0.1631 0002709  28.9105 331.2037 15.08835958 58758,6917.893,95.438,541.632,537.884,0.0
49771.0,STARLINK-3201,PAYLOAD,2022-12-24 00:20:34,15.08841684,0.0002542,53.2196,358.9724,29.6314,330.4821,1.8135e-05,0.0,0.0,0 STARLINK-3201,1 49771U 21115AZ  22358.01429237  .00000000  00000-0  18135-4 0  9998,2 49771  53.2196 358.9724 0002542  29.6314 330.4821 15.08841684 59901,6917.875,95.437,541.499,537.982,0.0
49771.0,STARLINK-3201,PAYLOAD,2022-12-24 06:42:06,15.08854329,0.0002559,53.219,357.783,29.4106,330.7030000000001,0.0001261,1.7199999999999998e-05,0.0,0 STARLINK-3201,1 49771U 21115AZ  22358.27923890  .00001720  00000-0  12610-3 0  9991,2 49771  53.2190 357.7830 0002559  29.4106 330.7030 15.08854329 59944,6917.837,95.437,541.472,537.931,0.0
49771.0,STARLINK-3201,PAYLOAD,2022-12-25 06:32:54,15.08838183,0.000264,53.2181,353.3241,26.4473,333.6654,3.4896e-05,2.67e-06,0.0,0 STARLINK-3201,1 49771U 21115AZ  22359.27284866  .00000267  00000-0  34896-4 0  9991,2 49771  53.2181 353.3241 0002640  26.4473 333.6654 15.08838183 60099,6917.886,95.438,541.577,537.925,0.0
49771.0,STARLINK-3201,PAYLOAD,2022-12-25 09:43:40,15.088375,0.0002709,53.2185,352.7297,30.5021,329.6128,6.6827e-05,7.75e-06,0.0,0 STARLINK-3201,1 49771U 21115AZ  22359.40532845  .00000775  00000-0  66827-4 0  9992,2 49771  53.2185 352.7297 0002709  30.5021 329.6128 15.08837500 59000,6917.888000000001,95.438,541.627,537.879,0.0
49771.0,STARLINK-3201,PAYLOAD,2022-12-26 03:12:55,15.08838114,0.0002771,53.2184,349.4587,32.9304,327.1861,-7.5047e-05,-1.483e-05,0.0,0 STARLINK-3201,1 49771U 21115AZ  22360.13397377 -.00001483  00000-0 -75047-4 0  9996,2 49771  53.2184 349.4587 0002771  32.9304 327.1861 15.08838114 59114,6917.886,95.438,541.668,537.8340000000002,0.0
49771.0,STARLINK-3201,PAYLOAD,2022-12-26 15:56:00,15.0883934,0.0002762,53.2185,347.0791,31.0376,329.0779,-9.5052e-05,-1.801e-05,0.0,0 STARLINK-3201,1 49771U 21115AZ  22360.66389342 -.00001801  00000-0 -95052-4 0  9999,2 49771  53.2185 347.0791 0002762  31.0376 329.0779 15.08839340 60309,6917.882,95.438,541.658,537.837,0.0
49771.0,STARLINK-3201,PAYLOAD,2022-12-26 23:52:55,15.08843547,0.0002725,53.2183,345.5919,28.1772,331.9367,6.8388e-05,8e-06,0.0,0 STARLINK-3201,1 49771U 21115AZ  22360.99508692  .00000800  00000-0  68388-4 0  9994,2 49771  53.2183 345.5919 0002725  28.1772 331.9367 15.08843547 60352,6917.87,95.437,541.62,537.849,0.0
49771.0,STARLINK-3201,PAYLOAD,2022-12-27 07:49:50,15.08846745,0.0002647,53.2176,344.1055,29.2186,330.8954,9.6341e-05,1.245e-05,0.0,0 STARLINK-3201,1 49771U 21115AZ  22361.32628339  .00001245  00000-0  96341-4 0  9997,2 49771  53.2176 344.1055 0002647  29.2186 330.8954 15.08846745 59298,6917.86,95.437,541.556,537.894,0.0
49771.0,STARLINK-3201,PAYLOAD,2022-12-28 09:16:01,15.08842349,0.0002719,53.2192,339.3488,32.687,327.4290000000001,0.00012732,1.739e-05,0.0,0 STARLINK-3201,1 49771U 21115AZ  22362.38612403  .00001739  00000-0  12732-3 0  9998,2 49771  53.2192 339.3488 0002719  32.6870 327.4290 15.08842349 59459,6917.873000000001,95.437,541.619,537.857,0.0
49771.0,STARLINK-3201,PAYLOAD,2022-12-29 07:31:26,15.08833032,0.0003173,53.2183,335.185,37.0641,323.057,-0.00012351,-2.254e-05,0.0,0 STARLINK-3201,1 49771U 21115AZ  22363.31350363 -.00002254  00000-0 -12351-3 0  9998,2 49771  53.2183 335.1850 0003173  37.0641 323.0570 15.08833032 60708,6917.901999999999,95.438,541.962,537.572,0.0
49771.0,STARLINK-3201,PAYLOAD,2022-12-30 04:11:26,15.08838819,0.0002933,53.2167,331.319,28.9871,331.1284,0.00012882,1.762e-05,0.0,0 STARLINK-3201,1 49771U 21115AZ  22364.17461351  .00001762  00000-0  12882-3 0  9993,2 49771  53.2167 331.3190 0002933  28.9871 331.1284 15.08838819 60836,6917.884,95.438,541.778,537.72,0.0
49771.0,STARLINK-3201,PAYLOAD,2022-12-30 07:22:12,15.08844515,0.000287,53.2174,330.7236,31.4952,328.6211,0.0001768,2.527e-05,0.0,0 STARLINK-3201,1 49771U 21115AZ  22364.30708974  .00002527  00000-0  17680-3 0  9994,2 49771  53.2174 330.7236 0002870  31.4952 328.6211 15.08844515 59746,6917.8669999999975,95.437,541.717,537.746,0.0
49771.0,STARLINK-3201,PAYLOAD,2022-12-30 15:19:07,15.08857548,0.0002759,53.218,329.2371,33.9552,326.1616,0.00029739,4.45e-05,0.0,0 STARLINK-3201,1 49771U 21115AZ  22364.63827826  .00004450  00000-0  29739-3 0  9993,2 49771  53.2180 329.2371 0002759  33.9552 326.1616 15.08857548 60907,6917.8269999999975,95.436,541.6,537.783,0.0
